OBJECT_NAME,OBJECT_ID,EPOCH,MEAN_MOTION,ECCENTRICITY,INCLINATION,RA_OF_ASC_NODE,ARG_OF_PERICENTER,MEAN_ANOMALY,EPHEMERIS_TYPE,CLASSIFICATION_TYPE,NORAD_CAT_ID,ELEMENT_SET_NO,REV_AT_EPOCH,BSTAR,MEAN_MOTION_DOT,MEAN_MOTION_DDOT
SL-8 R/B,1990-078B,2026-07-11T20:37:09.969888,14.93497547,.0344072,82.9024,139.3313,314.9131,42.4627,0,U,20775,999,82780,.37734E-3,.13322E-3,0
SL-8 R/B,1991-006B,2026-07-11T18:13:50.575296,13.77508689,.0023593,82.9412,77.7528,49.6811,11.8842,0,U,21088,999,78115,.48107E-4,.63E-6,0
OKEAN-3,1991-039A,2026-07-11T12:47:50.850816,15.05422298,.00121611,82.5138,216.7702,268.5123,91.4711,0,U,21397,999,88366,.101971E-3,.1493E-4,0
COSMOS 2151,1991-042A,2026-07-11T20:49:05.291040,15.00507998,.0012288,82.4978,323.8621,6.7925,353.3463,0,U,21422,999,88181,.58793E-4,.769E-5,0
SL-14 R/B,1991-042B,2026-07-11T20:47:06.026208,14.81916998,.0016677,82.4935,103.7536,187.8826,172.2129,0,U,21423,999,87146,.20026E-4,.182E-5,0
ERS-1,1991-050A,2026-07-11T16:49:17.899104,14.39531387,.003166,98.7795,213.9974,192.1679,167.8747,0,U,21574,999,83357,.60274E-4,.143E-5,0
ARIANE 40 R/B,1991-050F,2026-07-11T17:38:14.318016,14.42970703,.000428,98.1864,240.1940,69.0096,291.1552,0,U,21610,999,83688,.49703E-4,.125E-5,0
INTERCOSMOS 25,1991-086A,2026-07-11T15:01:50.984256,12.12237520,.1484401,82.6014,235.0208,209.6284,141.2096,0,U,21819,999,51170,.13882E-3,.711E-5,0
SL-8 R/B,1992-008B,2026-07-11T11:55:57.056160,13.75982946,.00354717,82.9270,175.7126,146.6939,330.4955,0,U,21876,999,72644,.10001248E-3,.113E-5,0
SL-8 R/B,1992-020B,2026-07-11T17:06:03.111264,13.75550295,.002809,82.9287,61.6383,313.7154,106.8190,0,U,21938,999,71818,.15164E-4,.3E-6,0
USA 81,1992-023A,2026-07-11T17:23:15.287136,14.32404318,.0002127,85.0053,59.8428,65.8458,294.2957,0,U,21949,999,11254,.30671E-4,.103E-5,0
COSMOS 2219,1992-076A,2026-07-11T21:04:10.596288,14.14109662,.001805,71.0615,118.4579,2.6786,357.4429,0,U,22219,999,73593,-.63878E-4,-.169E-5,0
SL-16 R/B,1992-076B,2026-07-11T16:15:47.061792,14.16875837,.0015001,71.0007,287.1913,266.5740,198.8374,0,U,22220,999,73939,.13808E-3,.229E-5,0
COSMOS 2221,1992-080A,2026-07-11T21:04:00.151392,14.96598168,.0015511,82.5044,160.1085,130.3175,229.9405,0,U,22236,999,79936,.78499E-4,.922E-5,0
SL-16 R/B,1992-093B,2026-07-11T20:02:58.261056,14.15466786,.0002436,71.0222,103.6485,142.9198,217.2094,0,U,22285,999,73072,-.60271E-4,-.165E-5,0
COSMOS 2228,1992-094A,2026-07-11T21:00:56.670624,14.97669663,.0016128,82.5189,118.3953,241.2863,118.6739,0,U,22286,999,79464,.90147E-4,.1084E-4,0
SL-16 R/B,1993-016B,2026-07-11T17:56:14.843328,14.15311538,.000897,71.0084,314.6220,144.2267,215.9459,0,U,22566,999,71972,.29136E-4,.9E-7,0
COSMOS 2242,1993-024A,2026-07-11T20:18:52.491168,14.96978593,.0014461,82.5197,147.9504,245.0379,114.9342,0,U,22626,999,79896,.82361E-4,.975E-5,0
SL-16 R/B,1993-059B,2026-07-11T20:09:44.656416,14.17250401,.0016471,70.9905,109.3160,13.5738,346.5825,0,U,22803,999,69712,-.10081E-3,-.252E-5,0
ARIANE 40 R/B,1993-061H,2026-07-11T18:50:09.680064,14.32917693,.0009459,98.4808,259.1296,277.0591,82.9517,0,U,22830,999,71187,.43389E-4,.75E-6,0
COSMOS 2278,1994-023A,2026-07-11T15:30:37.208736,14.14393490,.0009825,71.0529,275.7517,211.0303,149.0240,0,U,23087,999,66233,-.4952E-4,-.142E-5,0
SL-16 R/B,1994-023B,2026-07-11T10:12:02.839104,14.15023863,.000148,70.9980,171.0292,142.1590,217.9637,0,U,23088,999,66359,-.6967966E-5,-.61E-6,0
SL-16 R/B,1994-074B,2026-07-11T15:21:17.379072,14.79522445,.0006891,97.6986,218.3409,165.0348,309.1640,0,U,23343,999,70557,.35461E-4,.216E-5,0
SL-16 R/B,1994-077B,2026-07-11T20:28:20.000064,14.15574983,.0004075,70.9825,91.2711,305.9144,54.1600,0,U,23405,999,63380,-.10371E-3,-.251E-5,0
ARIANE 40+ R/B,1995-021B,2026-07-11T19:16:30.915840,14.39846419,.0007805,98.4401,262.5213,125.2176,345.1722,0,U,23561,999,63710,.49917E-4,.113E-5,0
SL-16 R/B,1995-058B,2026-07-11T15:41:43.088352,14.15508016,.0014609,71.0213,279.9902,287.4123,72.5403,0,U,23705,999,58539,.13511E-5,-.45E-6,0
SL-16 R/B,1996-051B,2026-07-11T16:14:10.688640,14.12455063,.0017531,70.7649,272.8234,302.7368,57.2061,0,U,24298,999,53915,.99392E-4,.134E-5,0
ORBVIEW 2 (SEASTAR),1997-037A,2026-07-11T09:57:00.863712,14.35565701,.00031792,98.8709,0.1077,68.4004,291.7519,0,U,24883,999,52622,.59286711E-4,.124E-5,0
SL-16 R/B,1998-043G,2026-07-11T20:23:23.452800,14.26072367,.0010213,98.8378,147.2227,20.7516,339.4077,0,U,25400,999,45668,.15857E-4,-.8E-7,0
SL-16 R/B,1998-045B,2026-07-11T16:11:35.129760,14.16206532,.0008359,71.0117,280.8322,211.6451,148.4170,0,U,25407,999,44465,-.10484E-3,-.255E-5,0
ISS (ZARYA),1998-067A,2026-07-11T19:56:37.121280,15.48984830,.0006685,51.6301,178.1288,284.5605,75.4642,0,U,25544,999,57557,.10801E-3,.5503E-4,0
CZ-4B R/B,1999-025C,2026-07-11T18:27:59.501088,14.18287291,.0036826,98.6473,233.9878,349.7088,124.0630,0,U,25732,999,40575,.22757E-4,.4E-7,0
OKEAN-O,1999-039A,2026-07-11T16:17:25.770336,14.80494875,.0000959,97.9303,251.1939,80.2174,279.9147,0,U,25860,999,45273,.43073E-4,.278E-5,0
SL-16 R/B,1999-039B,2026-07-11T17:53:17.700000,14.81868665,.0014058,97.9824,251.5368,210.0623,149.9784,0,U,25861,999,45523,.38297E-4,.249E-5,0
DELTA 2 R/B,1999-041E,2026-07-11T09:10:59.770272,14.12074081,.05012966,51.7614,167.1310,353.4998,5.9590,0,U,25876,999,38050,.24565568E-3,.129E-4,0
HELIOS 1B,1999-064A,2026-07-11T15:43:35.632128,14.88069884,.0002101,98.1590,98.5013,58.1999,301.9421,0,U,25977,999,70369,.84193E-4,.715E-5,0
TERRA,1999-068A,2026-07-11T21:16:09.071904,14.61122111,.0003278,97.9443,241.4516,129.2185,343.1618,0,U,25994,999,41321,.50793E-4,.205E-5,0
SL-16 R/B,2000-006B,2026-07-11T10:33:04.328352,14.15839011,.00170456,71.0002,197.6297,345.1977,14.8645,0,U,26070,999,36607,-.97423596E-4,-.24E-5,0
TITAN 4B R/B,2000-047B,2026-07-11T19:54:09.733248,15.10323452,.0045916,67.9872,51.2043,262.0769,97.5168,0,U,26474,999,41165,.91211E-4,.1393E-4,0
ENVISAT,2002-009A,2026-07-11T20:42:00.522720,14.39070297,.0001339,98.3845,143.6323,83.7867,336.5198,0,U,27386,999,27703,.20086E-4,.19E-6,0
IDEFIX & ARIANE 42P R/B,2002-021B,2026-07-11T19:26:45.434976,14.31092847,.0011681,98.5942,130.0269,176.2663,183.8609,0,U,27422,999,26177,.49517E-4,.87E-6,0
AQUA,2002-022A,2026-07-11T21:19:33.023424,14.62194214,.0000829,98.4293,162.6676,107.0903,281.0941,0,U,27424,999,28688,.90125E-4,.404E-5,0
CZ-4B R/B,2002-024C,2026-07-11T19:04:19.284096,14.14567809,.0050647,98.8688,245.4534,31.5672,81.2186,0,U,27432,999,24678,.22022E-4,-.1E-7,0
MIDORI II (ADEOS-II),2002-056A,2026-07-11T20:21:51.528384,14.29362111,.0001617,98.7892,152.3199,43.6524,316.4785,0,U,27597,999,22803,.62715E-4,.114E-5,0
H-2A R/B,2002-056E,2026-07-11T20:29:09.557376,14.33832769,.0070692,98.3326,148.6307,150.7915,263.9999,0,U,27601,999,23190,.56699E-4,.121E-5,0
CZ-4B R/B,2003-049C,2026-07-11T20:21:59.700960,14.55114701,.0047432,98.6908,192.6781,211.6082,148.2263,0,U,28059,999,20465,.44914E-4,.145E-5,0
CZ-2C R/B,2004-012C,2026-07-11T18:31:53.766048,15.84468881,.0011055,97.7069,271.3945,201.4409,158.6398,0,U,28222,999,22378,.4197E-3,.96609E-3,0
SL-16 R/B,2004-021B,2026-07-11T20:09:15.482592,14.14615883,.0006428,71.0025,331.9498,227.8280,132.2297,0,U,28353,999,14039,.75275E-4,.97E-6,0
CZ-4B R/B,2004-035C,2026-07-11T15:29:30.903648,15.30960838,.0029025,97.3363,225.4469,245.9380,113.8823,0,U,28415,999,19886,.15061E-3,.4483E-4,0
CZ-2C R/B,2004-046B,2026-07-11T17:34:46.597728,14.27032390,.0139937,98.1922,99.9767,147.5802,213.4073,0,U,28480,999,12619,.30829E-4,.43E-6,0
ARIANE 5 R/B,2004-049H,2026-07-11T10:43:35.851008,14.85476297,.0082805,98.2738,5.6402,310.5973,48.8055,0,U,28499,999,16416,.38805E-4,.289E-5,0
CZ-2D R/B,2005-024B,2026-07-11T14:46:39.326880,15.72416912,.0001774,97.3478,213.3121,203.5922,156.5260,0,U,28738,999,15917,.31208E-3,.41426E-3,0
ALOS (DAICHI),2006-002A,2026-07-11T20:47:04.971264,14.70098011,.0000775,98.1336,148.3587,90.2748,269.8547,0,U,28931,999,9172,.94675E-4,.519E-5,0
H-2A R/B,2006-002B,2026-07-11T08:59:16.437984,15.18407590,.00505742,98.2582,350.4005,178.9682,181.1663,0,U,28932,999,11319,.25811277E-3,.5406E-4,0
RESURS-DK 1,2006-021A,2026-07-11T14:59:58.583040,15.13311404,.0006915,69.9312,276.2898,275.2250,84.8127,0,U,29228,999,10627,.62717E-4,.1011E-4,0
CZ-4B R/B,2006-046C,2026-07-11T17:03:10.789920,15.17964077,.0032233,97.5444,237.2421,194.3231,165.7093,0,U,29507,999,7885,.11792E-3,.2355E-4,0
CZ-2C R/B,2007-010B,2026-07-11T20:35:10.285152,14.20281295,.0057833,98.4116,300.0044,293.6721,65.8394,0,U,31114,999,99734,.27089E-4,.17E-6,0
COSMO-SKYMED 1,2007-023A,2026-07-11T19:07:35.706720,14.97209461,.0001152,97.8843,24.8609,101.1366,258.9985,0,U,31598,999,3347,.11716E-3,.1295E-4,0
COSMOS 2428,2007-029A,2026-07-11T15:20:16.054080,14.12932455,.0007178,70.9382,303.1376,88.1796,272.0147,0,U,31792,999,98160,.11955E-3,.175E-5,0
SL-16 R/B,2007-029B,2026-07-11T15:37:40.598112,14.14850744,.0002041,70.9748,271.8031,256.6911,209.7663,0,U,31793,999,98290,.23494E-4,-.3E-7,0
KORONAS-FOTON,2009-003A,2026-07-11T20:50:45.868416,15.46244824,.0012389,82.4297,146.5036,72.5138,287.7464,0,U,33504,999,96491,.16498E-3,.8175E-4,0
CZ-2C R/B,2011-030B,2026-07-11T19:51:25.396128,14.81528354,.0050992,97.8668,147.7716,307.3955,109.0009,0,U,37731,999,80847,.77085E-4,.562E-5,0
H-2A R/B,2012-025E,2026-07-11T20:11:29.354208,14.95832759,.0042345,98.4849,170.0236,266.5109,93.1266,0,U,38341,999,76677,.81532E-4,.855E-5,0
SHIJIAN-16 (SJ-16),2013-057A,2026-07-11T20:06:42.672096,14.92667117,.0015931,74.9735,309.9929,173.0167,187.1247,0,U,39358,999,69002,.11804E-3,.119E-4,0
SL-4 R/B,2014-021B,2026-07-11T02:30:31.355712,15.42429106,.00898822,51.6060,93.5584,193.4185,166.4409,0,U,39679,999,67530,.12262198E-3,.5764E-4,0
ALOS-2,2014-029A,2026-07-12T00:40:24.335616,14.79469002,.0001549,97.9229,289.8370,98.6500,261.4887,0,U,39766,999,65525,.11465E-3,.805E-5,0
YAOGAN-29,2015-069A,2026-07-11T20:54:11.257632,14.83103275,.0001038,98.0028,221.5414,17.2230,342.9019,0,U,41038,999,57428,-.40201E-4,-.381E-5,0
